[{"OBJECT_NAME":"TRANSPORTER-10 OBJECT AG","OBJECT_ID":"2024-043AG","EPOCH":"2026-03-09T22:12:45.387648","MEAN_MOTION":15.30759727,"ECCENTRICITY":0.00093005,"INCLINATION":97.5471,"RA_OF_ASC_NODE":205.7101,"ARG_OF_PERICENTER":226.5958,"MEAN_ANOMALY":133.4509,"EPHEMERIS_TYPE":0,"CLASSIFICATION_TYPE":"U","NORAD_CAT_ID":59128,"ELEMENT_SET_NO":999,"REV_AT_EPOCH":11192,"BSTAR":0.00032170115,"MEAN_MOTION_DOT":9.498e-5,"MEAN_MOTION_DDOT":0},{"OBJECT_NAME":"STARLINK-33625","OBJECT_ID":"2025-057W","EPOCH":"2026-03-09T05:17:50.577792","MEAN_MOTION":15.2758344,"ECCENTRICITY":0.00017171,"INCLINATION":43.0012,"RA_OF_ASC_NODE":25.8894,"ARG_OF_PERICENTER":253.4037,"MEAN_ANOMALY":106.6627,"EPHEMERIS_TYPE":0,"CLASSIFICATION_TYPE":"U","NORAD_CAT_ID":63327,"ELEMENT_SET_NO":999,"REV_AT_EPOCH":5579,"BSTAR":0.0008984879,"MEAN_MOTION_DOT":0.00024547,"MEAN_MOTION_DDOT":0}]
